start=new Date('2023-06-25T00:00:00.000Z').valueOf();
sats=[{"ECCENTRICITY":"0.00080360","TLE_LINE1":"1 44951U 20001AP  23174.74819671  .00026163  00000-0  54425-3 0  9997","MEAN_MOTION_DDOT":"0.0000000000000","TIME_SYSTEM":"UTC","DECAY_DATE":null,"BSTAR":"0.00054425000000","INCLINATION":"53.0207","REF_FRAME":"TEME","MEAN_MOTION_DOT":"0.00026163","CLASSIFICATION_TYPE":"U","MEAN_MOTION":"15.45450855","TLE_LINE2":"2 44951  53.0207  28.3236 0008036  87.5869 272.6057 15.45450855193033","RA_OF_ASC_NODE":"28.3236","OBJECT_TYPE":"PAYLOAD","FILE":"3941020","MEAN_ELEMENT_THEORY":"SGP4","PERIAPSIS":"424.585","EPOCH":"2023-06-23T17:57:24.195744","RCS_SIZE":"LARGE","ARG_OF_PERICENTER":"87.5869","EPHEMERIS_TYPE":"0","NORAD_CAT_ID":"44951","CENTER_NAME":"EARTH","SITE":"AFETR","GP_ID":"234510521","LAUNCH_DATE":"2020-01-07","REV_AT_EPOCH":"19303","OBJECT_ID":"2020-001AP","MEAN_ANOMALY":"272.6057","OBJECT_NAME":"STARLINK-1126","SEMIMAJOR_AXIS":"6808.191","COUNTRY_CODE":"US","APOAPSIS":"435.527","PERIOD":"93.177","ELEMENT_SET_NO":"999"},{"OBJECT_TYPE":"PAYLOAD","EPOCH":"2023-06-24T04:13:11.982432","PERIAPSIS":"546.195","MEAN_ELEMENT_THEORY":"SGP4","FILE":"3941615","RCS_SIZE":"LARGE","ARG_OF_PERICENTER":"99.4513","MEAN_MOTION_DOT":"0.00026899","CLASSIFICATION_TYPE":"U","MEAN_MOTION":"15.06450368","TLE_LINE2":"2 44952  53.0539  88.7165 0001248  99.4513 260.6618 15.06450368190986","RA_OF_ASC_NODE":"88.7165","REF_FRAME":"TEME","ECCENTRICITY":"0.00012480","MEAN_MOTION_DDOT":"0.0000000000000","TLE_LINE1":"1 44952U 20001AQ  23175.17583313  .00026899  00000-0  18154-2 0  9991","DECAY_DATE":null,"TIME_SYSTEM":"UTC","BSTAR":"0.00181540000000","INCLINATION":"53.0539","COUNTRY_CODE":"US","APOAPSIS":"547.923","PERIOD":"95.589","ELEMENT_SET_NO":"999","OBJECT_NAME":"STARLINK-1117","SEMIMAJOR_AXIS":"6925.194","REV_AT_EPOCH":"19098","LAUNCH_DATE":"2020-01-07","OBJECT_ID":"2020-001AQ","MEAN_ANOMALY":"260.6618","EPHEMERIS_TYPE":"0","SITE":"AFETR","CENTER_NAME":"EARTH","NORAD_CAT_ID":"44952","GP_ID":"234524536"},{"SEMIMAJOR_AXIS":"6925.316","OBJECT_NAME":"STARLINK-1124","PERIOD":"95.591","ELEMENT_SET_NO":"999","COUNTRY_CODE":"US","APOAPSIS":"548.079","GP_ID":"234531164","EPHEMERIS_TYPE":"0","NORAD_CAT_ID":"44953","CENTER_NAME":"EARTH","SITE":"AFETR","MEAN_ANOMALY":"276.8190","REV_AT_EPOCH":"19231","LAUNCH_DATE":"2020-01-07","OBJECT_ID":"2020-001AR","MEAN_MOTION":"15.06410694","RA_OF_ASC_NODE":"87.4452","TLE_LINE2":"2 44953  53.0540  87.4452 0001297  83.2947 276.8190 15.06410694192311","MEAN_MOTION_DOT":"-0.00001088","CLASSIFICATION_TYPE":"U","RCS_SIZE":"LARGE","ARG_OF_PERICENTER":"83.2947","OBJECT_TYPE":"PAYLOAD","FILE":"3941880","MEAN_ELEMENT_THEORY":"SGP4","EPOCH":"2023-06-24T11:00:32.474016","PERIAPSIS":"546.283","TIME_SYSTEM":"UTC","DECAY_DATE":null,"INCLINATION":"53.0540","BSTAR":"-0.00005413900000","ECCENTRICITY":"0.00012970","TLE_LINE1":"1 44953U 20001AR  23175.45870919 -.00001088  00000-0 -54139-4 0  9994","MEAN_MOTION_DDOT":"0.0000000000000","REF_FRAME":"TEME"},{"OBJECT_NAME":"STARLINK-1066","SEMIMAJOR_AXIS":"6925.275","COUNTRY_CODE":"US","APOAPSIS":"548.022","PERIOD":"95.591","ELEMENT_SET_NO":"999","EPHEMERIS_TYPE":"0","NORAD_CAT_ID":"44954","CENTER_NAME":"EARTH","SITE":"AFETR","GP_ID":"234524385","LAUNCH_DATE":"2020-01-07","REV_AT_EPOCH":"19124","OBJECT_ID":"2020-001AS","MEAN_ANOMALY":"265.3649","MEAN_MOTION_DOT":"0.00010332","CLASSIFICATION_TYPE":"U","MEAN_MOTION":"15.06423989","TLE_LINE2":"2 44954  53.0544  67.6808 0001274  94.7485 265.3649 15.06423989191244","RA_OF_ASC_NODE":"67.6808","OBJECT_TYPE":"PAYLOAD","MEAN_ELEMENT_THEORY":"SGP4","FILE":"3941606","EPOCH":"2023-06-24T09:44:56.469696","PERIAPSIS":"546.258","RCS_SIZE":"LARGE","ARG_OF_PERICENTER":"94.7485","ECCENTRICITY":"0.00012740","TLE_LINE1":"1 44954U 20001AS  23175.40620914  .00010332  00000-0  71106-3 0  9990","MEAN_MOTION_DDOT":"0.0000000000000","TIME_SYSTEM":"UTC","DECAY_DATE":null,"BSTAR":"0.00071106000000","INCLINATION":"53.0544","REF_FRAME":"TEME"},{"ECCENTRICITY":"0.00017910","MEAN_MOTION_DDOT":"0.0000000000000","TLE_LINE1":"1 44955U 20001AT  23175.41357866  .00008722  00000-0  60321-3 0  9992","TIME_SYSTEM":"UTC","DECAY_DATE":null,"BSTAR":"0.00060321000000","INCLINATION":"53.0540","REF_FRAME":"TEME","MEAN_MOTION_DOT":"0.00008722","CLASSIFICATION_TYPE":"U","MEAN_MOTION":"15.06429396","RA_OF_ASC_NODE":"67.6528","TLE_LINE2":"2 44955  53.0540  67.6528 0001791  78.0306 282.0884 15.06429396191246","OBJECT_TYPE":"PAYLOAD","MEAN_ELEMENT_THEORY":"SGP4","FILE":"3941623","EPOCH":"2023-06-24T09:55:33.196224","PERIAPSIS":"545.883","RCS_SIZE":"LARGE","ARG_OF_PERICENTER":"78.0306","EPHEMERIS_TYPE":"0","CENTER_NAME":"EARTH","NORAD_CAT_ID":"44955","SITE":"AFETR","GP_ID":"234524405","LAUNCH_DATE":"2020-01-07","REV_AT_EPOCH":"19124","OBJECT_ID":"2020-001AT","MEAN_ANOMALY":"282.0884","OBJECT_NAME":"STARLINK-1069","SEMIMAJOR_AXIS":"6925.258","COUNTRY_CODE":"US","APOAPSIS":"548.364","PERIOD":"95.590","ELEMENT_SET_NO":"999"},{"REF_FRAME":"TEME","MEAN_MOTION_DDOT":"0.0000000000000","TLE_LINE1":"1 44956U 20001AU  23175.67434661  .00013715  00000-0  93766-3 0  9997","ECCENTRICITY":"0.00035610","INCLINATION":"53.0534","BSTAR":"0.00093766000000","DECAY_DATE":null,"TIME_SYSTEM":"UTC","PERIAPSIS":"544.730","EPOCH":"2023-06-24T16:11:03.547104","MEAN_ELEMENT_THEORY":"SGP4","FILE":"3941871","OBJECT_TYPE":"PAYLOAD","ARG_OF_PERICENTER":"80.5378","RCS_SIZE":"LARGE","CLASSIFICATION_TYPE":"U","MEAN_MOTION_DOT":"0.00013715","RA_OF_ASC_NODE":"66.4725","TLE_LINE2":"2 44956  53.0534  66.4725 0003561  80.5378 279.6013 15.06405672191348","MEAN_MOTION":"15.06405672","OBJECT_ID":"2020-001AU","LAUNCH_DATE":"2020-01-07","REV_AT_EPOCH":"19134","MEAN_ANOMALY":"279.6013","SITE":"AFETR","NORAD_CAT_ID":"44956","CENTER_NAME":"EARTH","EPHEMERIS_TYPE":"0","GP_ID":"234531368","APOAPSIS":"549.662","COUNTRY_CODE":"US","PERIOD":"95.592","ELEMENT_SET_NO":"999","OBJECT_NAME":"STARLINK-1070","SEMIMAJOR_AXIS":"6925.331"},{"MEAN_ANOMALY":"276.0645","REV_AT_EPOCH":"19130","LAUNCH_DATE":"2020-01-07","OBJECT_ID":"2020-001AV","GP_ID":"234524453","EPHEMERIS_TYPE":"0","NORAD_CAT_ID":"44957","CENTER_NAME":"EARTH","SITE":"AFETR","PERIOD":"95.592","ELEMENT_SET_NO":"999","COUNTRY_CODE":"US","APOAPSIS":"549.034","SEMIMAJOR_AXIS":"6925.348","OBJECT_NAME":"STARLINK-1074","REF_FRAME":"TEME","TIME_SYSTEM":"UTC","DECAY_DATE":null,"INCLINATION":"53.0526","BSTAR":"0.00094224000000","ECCENTRICITY":"0.00026300","MEAN_MOTION_DDOT":"0.0000000000000","TLE_LINE1":"1 44957U 20001AV  23175.43476310  .00013781  00000-0  94224-3 0  9992","RCS_SIZE":"LARGE","ARG_OF_PERICENTER":"84.0644","OBJECT_TYPE":"PAYLOAD","MEAN_ELEMENT_THEORY":"SGP4","FILE":"3941610","PERIAPSIS":"545.392","EPOCH":"2023-06-24T10:26:03.531840","MEAN_MOTION":"15.06400152","RA_OF_ASC_NODE":"67.5461","TLE_LINE2":"2 44957  53.0526  67.5461 0002630  84.0644 276.0645 15.06400152191306","MEAN_MOTION_DOT":"0.00013781","CLASSIFICATION_TYPE":"U"},{"OBJECT_ID":"2020-001AX","REV_AT_EPOCH":"19134","LAUNCH_DATE":"2020-01-07","MEAN_ANOMALY":"271.3136","SITE":"AFETR","NORAD_CAT_ID":"44959","CENTER_NAME":"EARTH","EPHEMERIS_TYPE":"0","GP_ID":"234531072","APOAPSIS":"548.192","COUNTRY_CODE":"US","PERIOD":"95.592","ELEMENT_SET_NO":"999","OBJECT_NAME":"STARLINK-1076","SEMIMAJOR_AXIS":"6925.325","REF_FRAME":"TEME","TLE_LINE1":"1 44959U 20001AX  23175.71583575  .00015100  00000-0  10302-2 0  9998","MEAN_MOTION_DDOT":"0.0000000000000","ECCENTRICITY":"0.00014470","INCLINATION":"53.0546","BSTAR":"0.00103020000000","DECAY_DATE":null,"TIME_SYSTEM":"UTC","EPOCH":"2023-06-24T17:10:48.208800","PERIAPSIS":"546.188","MEAN_ELEMENT_THEORY":"SGP4","FILE":"3941874","OBJECT_TYPE":"PAYLOAD","ARG_OF_PERICENTER":"88.8019","RCS_SIZE":"LARGE","CLASSIFICATION_TYPE":"U","MEAN_MOTION_DOT":"0.00015100","TLE_LINE2":"2 44959  53.0546  66.2969 0001447  88.8019 271.3136 15.06407772191344","RA_OF_ASC_NODE":"66.2969","MEAN_MOTION":"15.06407772"},{"REF_FRAME":"TEME","TIME_SYSTEM":"UTC","DECAY_DATE":null,"INCLINATION":"53.0544","BSTAR":"0.00117320000000","ECCENTRICITY":"0.00015890","MEAN_MOTION_DDOT":"0.0000000000000","TLE_LINE1":"1 44961U 20001AZ  23175.72320601  .00017237  00000-0  11732-2 0  9992","RCS_SIZE":"LARGE","ARG_OF_PERICENTER":"105.5914","OBJECT_TYPE":"PAYLOAD","FILE":"3941875","MEAN_ELEMENT_THEORY":"SGP4","PERIAPSIS":"546.110","EPOCH":"2023-06-24T17:21:24.999264","MEAN_MOTION":"15.06401088","TLE_LINE2":"2 44961  53.0544  66.2609 0001589 105.5914 254.5250 15.06401088191359","RA_OF_ASC_NODE":"66.2609","MEAN_MOTION_DOT":"0.00017237","CLASSIFICATION_TYPE":"U","MEAN_ANOMALY":"254.5250","LAUNCH_DATE":"2020-01-07","REV_AT_EPOCH":"19135","OBJECT_ID":"2020-001AZ","GP_ID":"234531082","EPHEMERIS_TYPE":"0","NORAD_CAT_ID":"44961","CENTER_NAME":"EARTH","SITE":"AFETR","PERIOD":"95.592","ELEMENT_SET_NO":"999","COUNTRY_CODE":"US","APOAPSIS":"548.311","SEMIMAJOR_AXIS":"6925.345","OBJECT_NAME":"STARLINK-1080"},{"APOAPSIS":"548.243","COUNTRY_CODE":"US","ELEMENT_SET_NO":"999","PERIOD":"95.592","OBJECT_NAME":"STARLINK-1086","SEMIMAJOR_AXIS":"6925.343","OBJECT_ID":"2020-001BC","REV_AT_EPOCH":"19130","LAUNCH_DATE":"2020-01-07","MEAN_ANOMALY":"276.4662","CENTER_NAME":"EARTH","NORAD_CAT_ID":"44964","SITE":"AFETR","EPHEMERIS_TYPE":"0","GP_ID":"234524483","MEAN_ELEMENT_THEORY":"SGP4","FILE":"3941611","EPOCH":"2023-06-24T10:06:11.337120","PERIAPSIS":"546.174","OBJECT_TYPE":"PAYLOAD","ARG_OF_PERICENTER":"83.6497","RCS_SIZE":"LARGE","CLASSIFICATION_TYPE":"U","MEAN_MOTION_DOT":"0.00012542","TLE_LINE2":"2 44964  53.0539  67.6194 0001494  83.6497 276.4662 15.06401697191308","RA_OF_ASC_NODE":"67.6194","MEAN_MOTION":"15.06401697","REF_FRAME":"TEME","TLE_LINE1":"1 44964U 20001BC  23175.42096455  .00012542  00000-0  85933-3 0  9998","MEAN_MOTION_DDOT":"0.0000000000000","ECCENTRICITY":"0.00014940","INCLINATION":"53.0539","BSTAR":"0.00085933000000","TIME_SYSTEM":"UTC","DECAY_DATE":null}];
